NORAD_CAT_ID,OBJECT_NAME,OBJECT_TYPE,EPOCH,MEAN_MOTION,ECCENTRICITY,INCLINATION,RA_OF_ASC_NODE,ARG_OF_PERICENTER,MEAN_ANOMALY,BSTAR,MEAN_MOTION_DOT,MEAN_MOTION_DDOT,TLE_LINE0,TLE_LINE1,TLE_LINE2,SEMIMAJOR_AXIS,PERIOD,APOGEE,PERIGEE,DECAYED
53155.0,STARLINK-4088,PAYLOAD,2024-01-16 10:25:47,15.08838269,0.0001748,53.2173,80.2879,78.0854,282.0334,2.3476e-05,8.6e-07,0.0,0 STARLINK-4088,1 53155U 22083Z   24016.43458150  .00000086  00000-0  23476-4 0  9997,2 53155  53.2173  80.2879 0001748  78.0854 282.0334 15.08838269 83742,6917.886,95.438,540.96,538.541,0.0
53155.0,STARLINK-4088,PAYLOAD,2024-01-17 10:16:35,15.08839625,0.0001794,53.216,75.8311,85.2818,274.8379,0.00016626,2.359e-05,0.0,0 STARLINK-4088,1 53155U 22083Z   24017.42818536  .00002359  00000-0  16626-3 0  9998,2 53155  53.2160  75.8311 0001794  85.2818 274.8379 15.08839625 83903,6917.882,95.438,540.988,538.505,0.0
53155.0,STARLINK-4088,PAYLOAD,2024-01-18 03:45:49,15.08843972,0.0001717,53.2158,72.5595,83.6439,276.4749,0.00025177,3.722e-05,0.0,0 STARLINK-4088,1 53155U 22083Z   24018.15682501  .00003722  00000-0  25177-3 0  9996,2 53155  53.2158  72.5595 0001717  83.6439 276.4749 15.08843972 84005,6917.868,95.437,540.921,538.545,0.0
53155.0,STARLINK-4088,PAYLOAD,2024-01-18 13:18:08,15.08850549,0.0001642,53.2154,70.7708,103.2401,256.8774,0.00026396,3.917e-05,0.0,0 STARLINK-4088,1 53155U 22083Z   24018.55425976  .00003917  00000-0  26396-3 0  9991,2 53155  53.2154  70.7708 0001642 103.2401 256.8774 15.08850549 84077,6917.848,95.437,540.849,538.577,0.0
53155.0,STARLINK-4088,PAYLOAD,2024-01-19 03:36:36,15.08836013,0.0001626,53.2147,68.0936,104.3416,255.7756,2.1576e-05,5.5e-07,0.0,0 STARLINK-4088,1 53155U 22083Z   24019.15042553  .00000055  00000-0  21576-4 0  9990,2 53155  53.2147  68.0936 0001626 104.3416 255.7756 15.08836013 84159,6917.893,95.438,540.882,538.633,0.0
53155.0,STARLINK-4088,PAYLOAD,2024-01-19 08:22:46,15.08839894,0.0001627,53.2171,67.2086,89.6303,270.4875,9.1435e-05,1.167e-05,0.0,0 STARLINK-4088,1 53155U 22083Z   24019.34914515  .00001167  00000-0  91435-4 0  9993,2 53155  53.2171  67.2086 0001627  89.6303 270.4875 15.08839894 84194,6917.881,95.438,540.871,538.62,0.0
53155.0,STARLINK-4088,PAYLOAD,2024-01-20 09:48:56,15.08835474,0.0001632,53.2169,62.4483,98.5847,261.533,6.4308e-05,7.35e-06,0.0,0 STARLINK-4088,1 53155U 22083Z   24020.40899000  .00000735  00000-0  64308-4 0  9992,2 53155  53.2169  62.4483 0001632  98.5847 261.5330 15.08835474 84341,6917.894,95.438,540.888,538.63,0.0
53155.0,STARLINK-4088,PAYLOAD,2024-01-21 03:18:09,15.08856831,0.0001398,53.2165,59.1768,81.4462,278.6689,0.00035652,5.393e-05,0.0,0 STARLINK-4088,1 53155U 22083Z   24021.13761374  .00005393  00000-0  35652-3 0  9999,2 53155  53.2165  59.1768 0001398  81.4462 278.6689 15.08856831 84457,6917.829,95.436,540.661,538.727,0.0
53155.0,STARLINK-4088,PAYLOAD,2024-01-21 06:28:55,15.088607,0.0001464,53.2165,58.5819,88.4171,271.6988,0.0005283,8.135e-05,0.0,0 STARLINK-4088,1 53155U 22083Z   24021.27009175  .00008135  00000-0  52830-3 0  9992,2 53155  53.2165  58.5819 0001464  88.4171 271.6988 15.08860700 84483,6917.817,95.436,540.695,538.669,0.0
53155.0,STARLINK-4088,PAYLOAD,2024-01-21 08:04:18,15.08867309,0.0001355,53.2161,58.2822,94.252,265.8627,0.00051082,7.857e-05,0.0,0 STARLINK-4088,1 53155U 22083Z   24021.33632771  .00007857  00000-0  51082-3 0  9991,2 53155  53.2161  58.2822 0001355  94.2520 265.8627 15.08867309 84489,6917.797,95.436,540.599,538.725,0.0
53155.0,STARLINK-4088,PAYLOAD,2024-01-21 22:22:47,15.08853512,0.000158,53.2164,55.6079,96.08,264.0372,0.00024108,3.552e-05,0.0,0 STARLINK-4088,1 53155U 22083Z   24021.93249034  .00003552  00000-0  24108-3 0  9990,2 53155  53.2164  55.6079 0001580  96.0800 264.0372 15.08853512 84577,6917.839,95.437,540.797,538.611,0.0
53155.0,STARLINK-4088,PAYLOAD,2024-01-22 06:19:43,15.08826067,0.0001534,53.2161,54.1209,61.038,299.0766,-0.00043612,-7.219e-05,0.0,0 STARLINK-4088,1 53155U 22083Z   24022.26369908 -.00007219  00000-0 -43612-3 0  9997,2 53155  53.2161  54.1209 0001534  61.0380 299.0766 15.08826067 84634,6917.923,95.438,540.849,538.727,0.0
53155.0,STARLINK-4088,PAYLOAD,2024-01-22 09:30:29,15.08822863,0.000162,53.2161,53.5266,75.0105,285.1066,-0.00016987,-2.989e-05,0.0,0 STARLINK-4088,1 53155U 22083Z   24022.39617666 -.00002989  00000-0 -16987-3 0  9992,2 53155  53.2161  53.5266 0001620  75.0105 285.1066 15.08822863 84646,6917.933,95.439,540.918,538.677,0.0
53155.0,STARLINK-4088,PAYLOAD,2024-01-23 06:10:31,15.0884167,0.0001821,53.2161,49.6633,73.2888,286.8304,0.0013691,0.00021569,0.0,0 STARLINK-4088,1 53155U 22083Z   24023.25730997  .00021569  00000-0  13691-2 0  9992,2 53155  53.2161  49.6633 0001821  73.2888 286.8304 15.08841670 84786,6917.875,95.437,541.0,538.481,0.0
53155.0,STARLINK-4088,PAYLOAD,2024-01-23 09:21:17,15.08847949,0.0001934,53.2164,49.0705,69.7917,290.3283,0.0013938,0.00021969,0.0,0 STARLINK-4088,1 53155U 22083Z   24023.38978985  .00021969  00000-0  13938-2 0  9995,2 53155  53.2164  49.0705 0001934  69.7917 290.3283 15.08847949 84793,6917.856,95.437,541.059,538.383,0.0
53155.0,STARLINK-4088,PAYLOAD,2024-01-24 07:36:42,15.08847343,0.0001941,53.2178,44.9056,82.56,277.5613,0.00085762,0.0001339,0.0,0 STARLINK-4088,1 53155U 22083Z   24024.31715413  .00013390  00000-0  85762-3 0  9998,2 53155  53.2178  44.9056 0001941  82.5600 277.5613 15.08847343 84939,6917.858,95.437,541.066,538.38,0.0
53155.0,STARLINK-4088,PAYLOAD,2024-01-25 04:16:42,15.08847244,0.000203,53.217,41.0386,79.1344,280.9877,0.00049754,7.641e-05,0.0,0 STARLINK-4088,1 53155U 22083Z   24025.17827427  .00007641  00000-0  49754-3 0  9995,2 53155  53.2170  41.0386 0002030  79.1344 280.9877 15.08847244 85067,6917.858,95.437,541.128,538.319,0.0
53155.0,STARLINK-4088,PAYLOAD,2024-01-25 07:27:29,15.08849347,0.0002021,53.2176,40.4412,80.6043,279.5177,0.00048469,7.436e-05,0.0,0 STARLINK-4088,1 53155U 22083Z   24025.31075311  .00007436  00000-0  48469-3 0  9992,2 53155  53.2176  40.4412 0002021  80.6043 279.5177 15.08849347 85095,6917.852,95.437,541.115,538.319,0.0
53155.0,STARLINK-4088,PAYLOAD,2024-01-26 04:07:29,15.08844252,0.0002212,53.2185,36.5799,103.9935,256.1304,0.00020491,2.975e-05,0.0,0 STARLINK-4088,1 53155U 22083Z   24026.17187265  .00002975  00000-0  20491-3 0  9997,2 53155  53.2185  36.5799 0002212 103.9935 256.1304 15.08844252 85217,6917.867,95.437,541.263,538.202,0.0
53155.0,STARLINK-4088,PAYLOAD,2024-01-26 07:18:16,15.0884294,0.0002127,53.2186,35.9841,103.0949,257.028,0.00013301,1.829e-05,0.0,0 STARLINK-4088,1 53155U 22083Z   24026.30435289  .00001829  00000-0  13301-3 0  9993,2 53155  53.2186  35.9841 0002127 103.0949 257.0280 15.08842940 85248,6917.871,95.437,541.208,538.265,0.0
53155.0,STARLINK-4088,PAYLOAD,2024-01-27 03:58:16,15.08844313,0.0002197,53.2187,32.12,116.8036,243.3181,-2.1721e-05,-6.34e-06,0.0,0 STARLINK-4088,1 53155U 22083Z   24027.16547136 -.00000634  00000-0 -21721-4 0  9994,2 53155  53.2187  32.1200 0002197 116.8036 243.3181 15.08844313 85360,6917.867,95.437,541.252,538.212,0.0
53155.0,STARLINK-4088,PAYLOAD,2024-01-27 07:09:03,15.08837236,0.0002292,53.2186,31.5243,115.0645,245.0585,0.00030215,4.523e-05,0.0,0 STARLINK-4088,1 53155U 22083Z   24027.29795516  .00004523  00000-0  30215-3 0  9991,2 53155  53.2186  31.5243 0002292 115.0645 245.0585 15.08837236 85398,6917.889,95.438,541.339,538.168,0.0
53155.0,STARLINK-4088,PAYLOAD,2024-01-28 05:24:27,15.08837945,0.0002175,53.2197,27.3622,115.8254,244.2962,6.0915e-05,6.81e-06,0.0,0 STARLINK-4088,1 53155U 22083Z   24028.22531762  .00000681  00000-0  60915-4 0  9998,2 53155  53.2197  27.3622 0002175 115.8254 244.2962 15.08837945 85520,6917.887,95.438,541.256,538.247,0.0
53155.0,STARLINK-4088,PAYLOAD,2024-01-28 10:10:38,15.08796604,0.0002394,53.2196,26.4664,111.3226,248.8022,0.00074204,0.00011527,0.0,0 STARLINK-4088,1 53155U 22083Z   24028.42405288  .00011527  00000-0  74204-3 0  9999,2 53155  53.2196  26.4664 0002394 111.3226 248.8022 15.08796604 85554,6918.013,95.44,541.534,538.222,0.0
53155.0,STARLINK-4088,PAYLOAD,2024-01-29 03:39:50,15.08852236,0.0002137,53.2195,23.1986,123.1283,236.9915,0.00018084,2.592e-05,0.0,0 STARLINK-4088,1 53155U 22083Z   24029.15266410  .00002592  00000-0  18084-3 0  9998,2 53155  53.2195  23.1986 0002137 123.1283 236.9915 15.08852236 85668,6917.843,95.437,541.186,538.23,0.0
53155.0,STARLINK-4088,PAYLOAD,2024-01-29 08:25:57,15.08875915,0.0001802,53.2192,22.3023,102.2169,257.9025,0.0003632,5.503e-05,0.0,0 STARLINK-4088,1 53155U 22083Z   24029.35136416  .00005503  00000-0  36320-3 0  9990,2 53155  53.2192  22.3023 0001802 102.2169 257.9025 15.08875915 85694,6917.771,95.435,540.882,538.389,0.0
53155.0,STARLINK-4088,PAYLOAD,2024-01-30 03:30:37,15.08839945,0.0003002,53.2195,18.7341,139.0303,221.0916,7.1069e-05,8.43e-06,0.0,0 STARLINK-4088,1 53155U 22083Z   24030.14626989  .00000843  00000-0  71069-4 0  9990,2 53155  53.2195  18.7341 0003002 139.0303 221.0916 15.08839945 85819,6917.881,95.438,541.822,537.669,0.0
53155.0,STARLINK-4088,PAYLOAD,2024-01-30 08:16:47,15.08838166,0.0001689,53.2191,17.8453,104.8942,255.2237,4.2651e-05,3.91e-06,0.0,0 STARLINK-4088,1 53155U 22083Z   24030.34499510  .00000391  00000-0  42651-4 0  9993,2 53155  53.2191  17.8453 0001689 104.8942 255.2237 15.08838166 85849,6917.886,95.438,540.919,538.583,0.0
53155.0,STARLINK-4088,PAYLOAD,2024-01-31 06:32:11,15.0885117,0.0001733,53.2194,13.6803,91.3451,268.774,-0.00020835,-3.604e-05,0.0,0 STARLINK-4088,1 53155U 22083Z   24031.27235538 -.00003604  00000-0 -20835-3 0  9995,2 53155  53.2194  13.6803 0001733  91.3451 268.7740 15.08851170 85994,6917.846,95.437,540.91,538.512,0.0
53155.0,STARLINK-4088,PAYLOAD,2024-02-01 03:12:12,15.08833079,0.0001775,53.2195,9.8158,92.041,268.0786,0.00014467,2.015e-05,0.0,0 STARLINK-4088,1 53155U 22083Z   24032.13348050  .00002015  00000-0  14467-3 0  9992,2 53155  53.2195   9.8158 0001775  92.0410 268.0786 15.08833079 86110,6917.902,95.438,540.994,538.539,0.0
